{"type": "FeatureCollection", "features": [ {"type": "Feature", "properties": {"norad_id": 30481, "name": "FENGYUN 1C DEB", "group": "fengyun-1c-debris", "lat": -77.51460967779977, "lon": 40.31815316447292, "alt_km": 610.0150200172166, "timestamp": "2025-12-07T09:35:10.067033+00:00", "meta": {"OBJECT_NAME": "FENGYUN 1C DEB", "OBJECT_ID": "1999-025AGT", "EPOCH": "2025-12-06T14:32:09.068064", "MEAN_MOTION": 14.38996311, "ECCENTRICITY": 0.02231446, "INCLINATION": 98.3369, "RA_OF_ASC_NODE": 358.0753, "ARG_OF_PERICENTER": 278.5255, "MEAN_ANOMALY": 211.0626, "EPHEMERIS_TYPE": 0, "CLASSIFICATION_TYPE": "U", "NORAD_CAT_ID": 30481, "ELEMENT_SET_NO": 999, "REV_AT_EPOCH": 98395, "BSTAR": 0.0010171863, "MEAN_MOTION_DOT": 4.15e-05, "MEAN_MOTION_DDOT": 0}, "tle": {"line1": "1 30481U 99025AGT 25340.60566051  .00004150  00000+0  10172-2 0  9996", "line2": "2 30481  98.3369 358.0753 0223144 278.5255 211.0626 14.38996311983954"}}, "geometry": {"type": "Point", "coordinates": [40.31815316447292, -77.51460967779977]}}, {"type": "Feature", "properties": {"norad_id": 30486, "name": "FENGYUN 1C DEB", "group": "fengyun-1c-debris", "lat": -79.41313330856507, "lon": 69.95175344306254, "alt_km": 285.1454453803499, "timestamp": "2025-12-07T09:35:10.067044+00:00", "meta": {"OBJECT_NAME": "FENGYUN 1C DEB", "OBJECT_ID": "1999-025AGY", "EPOCH": "2025-12-06T14:22:26.663808", "MEAN_MOTION": 15.94808417, "ECCENTRICITY": 0.00152998, "INCLINATION": 98.7994, "RA_OF_ASC_NODE": 12.9295, "ARG_OF_PERICENTER": 219.2254, "MEAN_ANOMALY": 140.791, "EPHEMERIS_TYPE": 0, "CLASSIFICATION_TYPE": "U", "NORAD_CAT_ID": 30486, "ELEMENT_SET_NO": 999, "REV_AT_EPOCH": 1656, "BSTAR": 0.0030702646, "MEAN_MOTION_DOT": 0.01173656, "MEAN_MOTION_DDOT": 0.00065507125}, "tle": {"line1": "1 30486U 99025AGY 25340.59891972  .01173656  65507-3  30703-2 0  9990", "line2": "2 30486  98.7994  12.9295 0015299 219.2254 140.7910 15.94808417 16565"}}, "geometry": {"type": "Point", "coordinates": [69.95175344306254, -79.41313330856507]}}, {"type": "Feature", "properties": {"norad_id": 30489, "name": "FENGYUN 1C DEB", "group": "fengyun-1c-debris", "lat": -36.69077628563969, "lon": 170.18087146394055, "alt_km": 799.9863797847474, "timestamp": "2025-12-07T09:35:10.067054+00:00", "meta": {"OBJECT_NAME": "FENGYUN 1C DEB", "OBJECT_ID": "1999-025AHB", "EPOCH": "2025-12-06T21:15:35.280864", "MEAN_MOTION": 14.15809854, "ECCENTRICITY": 0.01389366, "INCLINATION": 98.4688, "RA_OF_ASC_NODE": 356.0664, "ARG_OF_PERICENTER": 282.0383, "MEAN_ANOMALY": 200.1618, "EPHEMERIS_TYPE": 0, "CLASSIFICATION_TYPE": "U", "NORAD_CAT_ID": 30489, "ELEMENT_SET_NO": 999, "REV_AT_EPOCH": 97304, "BSTAR": 0.00051054148, "MEAN_MOTION_DOT": 1.059e-05, "MEAN_MOTION_DDOT": 0}, "tle": {"line1": "1 30489U 99025AHB 25340.88582501  .00001059  00000+0  51054-3 0  9992", "line2": "2 30489  98.4688 356.0664 0138936 282.0383 200.1618 14.15809854973041"}}, "geometry": {"type": "Point", "coordinates": [170.18087146394055, -36.69077628563969]}}, {"type": "Feature", "properties": {"norad_id": 30490, "name": "FENGYUN 1C DEB", "group": "fengyun-1c-debris", "lat": 28.863552520587433, "lon": 107.79847815049254, "alt_km": 495.6988832259094, "timestamp": "2025-12-07T09:35:10.067064+00:00", "meta": {"OBJECT_NAME": "FENGYUN 1C DEB", "OBJECT_ID": "1999-025AHC", "EPOCH": "2025-12-06T14:34:56.509536", "MEAN_MOTION": 15.26620649, "ECCENTRICITY": 0.00503609, "INCLINATION": 98.3329, "RA_OF_ASC_NODE": 111.5495, "ARG_OF_PERICENTER": 142.3284, "MEAN_ANOMALY": 218.1496, "EPHEMERIS_TYPE": 0, "CLASSIFICATION_TYPE": "U", "NORAD_CAT_ID": 30490, "ELEMENT_SET_NO": 999, "REV_AT_EPOCH": 99402, "BSTAR": 0.0059329928, "MEAN_MOTION_DOT": 0.0016441, "MEAN_MOTION_DDOT": 0}, "tle": {"line1": "1 30490U 99025AHC 25340.60759849  .00164410  00000+0  59330-2 0  9990", "line2": "2 30490  98.3329 111.5495 0050360 142.3284 218.1496 15.26620649994022"}}, "geometry": {"type": "Point", "coordinates": [107.79847815049254, 28.863552520587433]}}, {"type": "Feature", "properties": {"norad_id": 30492, "name": "FENGYUN 1C DEB", "group": "fengyun-1c-debris", "lat": -1.648398942353839, "lon": -3.4590945191353404, "alt_km": 709.8325347282089, "timestamp": "2025-12-07T09:35:10.067075+00:00", "meta": {"OBJECT_NAME": "FENGYUN 1C DEB", "OBJECT_ID": "1999-025AHE", "EPOCH": "2025-12-06T17:03:08.511552", "MEAN_MOTION": 14.51612887, "ECCENTRICITY": 0.00953279, "INCLINATION": 102.3255, "RA_OF_ASC_NODE": 355.1741, "ARG_OF_PERICENTER": 79.3011, "MEAN_ANOMALY": 281.8886, "EPHEMERIS_TYPE": 0, "CLASSIFICATION_TYPE": "U", "NORAD_CAT_ID": 30492, "ELEMENT_SET_NO": 999, "REV_AT_EPOCH": 96807, "BSTAR": 0.0056527219, "MEAN_MOTION_DOT": 0.00024037, "MEAN_MOTION_DDOT": 0}, "tle": {"line1": "1 30492U 99025AHE 25340.71051518  .00024037  00000+0  56527-2 0  9997", "line2": "2 30492 102.3255 355.1741 0095327  79.3011 281.8886 14.51612887968075"}}, "geometry": {"type": "Point", "coordinates": [-3.4590945191353404, -1.648398942353839]}}, {"type": "Feature", "properties": {"norad_id": 30493, "name": "FENGYUN 1C DEB", "group": "fengyun-1c-debris", "lat": 13.628891973584933, "lon": 170.02194946974424, "alt_km": 1023.4848067525554, "timestamp": "2025-12-07T09:35:10.067085+00:00", "meta": {"OBJECT_NAME": "FENGYUN 1C DEB", "OBJECT_ID": "1999-025AHF", "EPOCH": "2025-12-06T19:47:24.878400", "MEAN_MOTION": 13.9288595, "ECCENTRICITY": 0.01816606, "INCLINATION": 98.5711, "RA_OF_ASC_NODE": 171.5849, "ARG_OF_PERICENTER": 233.1461, "MEAN_ANOMALY": 138.6298, "EPHEMERIS_TYPE": 0, "CLASSIFICATION_TYPE": "U", "NORAD_CAT_ID": 30493, "ELEMENT_SET_NO": 999, "REV_AT_EPOCH": 95013, "BSTAR": 0.005586816, "MEAN_MOTION_DOT": 8.264e-05, "MEAN_MOTION_DDOT": 0}, "tle": {"line1": "1 30493U 99025AHF 25340.82459350  .00008264  00000+0  55868-2 0  9997", "line2": "2 30493  98.5711 171.5849 0181660 233.1461 138.6298 13.92885950950134"}}, "geometry": {"type": "Point", "coordinates": [170.02194946974424, 13.628891973584933]}}, {"type": "Feature", "properties": {"norad_id": 30494, "name": "FENGYUN 1C DEB", "group": "fengyun-1c-debris", "lat": -9.385086956244438, "lon": -164.6649849737943, "alt_km": 875.7240270552975, "timestamp": "2025-12-07T09:35:10.067096+00:00", "meta": {"OBJECT_NAME": "FENGYUN 1C DEB", "OBJECT_ID": "1999-025AHG", "EPOCH": "2025-12-06T20:28:06.341088", "MEAN_MOTION": 13.79343704, "ECCENTRICITY": 0.01856311, "INCLINATION": 99.2828, "RA_OF_ASC_NODE": 16.3482, "ARG_OF_PERICENTER": 237.763, "MEAN_ANOMALY": 120.5412, "EPHEMERIS_TYPE": 0, "CLASSIFICATION_TYPE": "U", "NORAD_CAT_ID": 30494, "ELEMENT_SET_NO": 999, "REV_AT_EPOCH": 94405, "BSTAR": 0.0024570872, "MEAN_MOTION_DOT": 2.827e-05, "MEAN_MOTION_DDOT": 0}, "tle": {"line1": "1 30494U 99025AHG 25340.85285117  .00002827  00000+0  24571-2 0  9995", "line2": "2 30494  99.2828  16.3482 0185631 237.7630 120.5412 13.79343704944054"}}, "geometry": {"type": "Point", "coordinates": [-164.6649849737943, -9.385086956244438]}}, {"type": "Feature", "properties": {"norad_id": 30495, "name": "FENGYUN 1C DEB", "group": "fengyun-1c-debris", "lat": 23.213139527746396, "lon": 64.17718027103663, "alt_km": 1386.2915216278434, "timestamp": "2025-12-07T09:35:10.067106+00:00", "meta": {"OBJECT_NAME": "FENGYUN 1C DEB", "OBJECT_ID": "1999-025AHH", "EPOCH": "2025-12-03T12:42:43.025760", "MEAN_MOTION": 12.9432737, "ECCENTRICITY": 0.05963109, "INCLINATION": 102.2617, "RA_OF_ASC_NODE": 65.1943, "ARG_OF_PERICENTER": 285.4927, "MEAN_ANOMALY": 68.1109, "EPHEMERIS_TYPE": 0, "CLASSIFICATION_TYPE": "U", "NORAD_CAT_ID": 30495, "ELEMENT_SET_NO": 999, "REV_AT_EPOCH": 88554, "BSTAR": 0.0035428862, "MEAN_MOTION_DOT": 2.155e-05, "MEAN_MOTION_DDOT": 0}, "tle": {"line1": "1 30495U 99025AHH 25337.52966465  .00002155  00000+0  35429-2 0  9996", "line2": "2 30495 102.2617  65.1943 0596310 285.4927  68.1109 12.94327370885544"}}, "geometry": {"type": "Point", "coordinates": [64.17718027103663, 23.213139527746396]}}, {"type": "Feature", "properties": {"norad_id": 30496, "name": "FENGYUN 1C DEB", "group": "fengyun-1c-debris", "lat": 13.819042168473768, "lon": -115.57037072533156, "alt_km": 601.2737693530307, "timestamp": "2025-12-07T09:35:10.067116+00:00", "meta": {"OBJECT_NAME": "FENGYUN 1C DEB", "OBJECT_ID": "1999-025AHJ", "EPOCH": "2025-12-06T17:27:02.973600", "MEAN_MOTION": 14.94143369, "ECCENTRICITY": 0.01300853, "INCLINATION": 98.7834, "RA_OF_ASC_NODE": 245.8578, "ARG_OF_PERICENTER": 116.6956, "MEAN_ANOMALY": 244.7647, "EPHEMERIS_TYPE": 0, "CLASSIFICATION_TYPE": "U", "NORAD_CAT_ID": 30496, "ELEMENT_SET_NO": 999, "REV_AT_EPOCH": 1054, "BSTAR": 0.00085956103, "MEAN_MOTION_DOT": 0.00010809, "MEAN_MOTION_DDOT": 0}, "tle": {"line1": "1 30496U 99025AHJ 25340.72711775  .00010809  00000+0  85956-3 0  9991", "line2": "2 30496  98.7834 245.8578 0130085 116.6956 244.7647 14.94143369 10541"}}, "geometry": {"type": "Point", "coordinates": [-115.57037072533156, 13.819042168473768]}}, {"type": "Feature", "properties": {"norad_id": 30498, "name": "FENGYUN 1C DEB", "group": "fengyun-1c-debris", "lat": 27.195575229707877, "lon": 27.623386789725025, "alt_km": 931.916781613093, "timestamp": "2025-12-07T09:35:10.067127+00:00", "meta": {"OBJECT_NAME": "FENGYUN 1C DEB", "OBJECT_ID": "1999-025AHL", "EPOCH": "2025-12-06T22:19:57.461952", "MEAN_MOTION": 14.06013419, "ECCENTRICITY": 0.01048869, "INCLINATION": 99.2373, "RA_OF_ASC_NODE": 31.9419, "ARG_OF_PERICENTER": 171.4917, "MEAN_ANOMALY": 4.8352, "EPHEMERIS_TYPE": 0, "CLASSIFICATION_TYPE": "U", "NORAD_CAT_ID": 30498, "ELEMENT_SET_NO": 999, "REV_AT_EPOCH": 95687, "BSTAR": 0.0026706311, "MEAN_MOTION_DOT": 4.558e-05, "MEAN_MOTION_DDOT": 0}, "tle": {"line1": "1 30498U 99025AHL 25340.93052618  .00004558  00000+0  26706-2 0  9991", "line2": "2 30498  99.2373  31.9419 0104886 171.4917   4.8352 14.06013419956879"}}, "geometry": {"type": "Point", "coordinates": [27.623386789725025, 27.195575229707877]}}]}